STARLINK-36315          
1 67731U 26026L   26068.91668981 -.02085772  00000+0 -44727-1 0  9997
2 67731  97.2849 123.4838 0001862  92.9236  83.2277 15.48146499  5355
KUIPER-00205            
1 67774U 26030L   26068.68740930  .00025239  00000+0  70745-3 0  9997
2 67774  51.8813 219.0576 0003254  20.5074 339.6043 15.36438333  5092
