[{"OBJECT_NAME":"STARLINK-36315","OBJECT_ID":"2026-026L","EPOCH":"2026-03-09T22:00:01.999584","MEAN_MOTION":15.48146499,"ECCENTRICITY":0.0001862,"INCLINATION":97.2849,"RA_OF_ASC_NODE":123.4838,"ARG_OF_PERICENTER":92.9236,"MEAN_ANOMALY":83.2277,"EPHEMERIS_TYPE":0,"CLASSIFICATION_TYPE":"U","NORAD_CAT_ID":67731,"ELEMENT_SET_NO":999,"REV_AT_EPOCH":535,"BSTAR":-0.044727238,"MEAN_MOTION_DOT":-0.02085772,"MEAN_MOTION_DDOT":0},{"OBJECT_NAME":"KUIPER-00205","OBJECT_ID":"2026-030L","EPOCH":"2026-03-09T16:29:52.163520","MEAN_MOTION":15.36438333,"ECCENTRICITY":0.00032546,"INCLINATION":51.8813,"RA_OF_ASC_NODE":219.0576,"ARG_OF_PERICENTER":20.5074,"MEAN_ANOMALY":339.6043,"EPHEMERIS_TYPE":0,"CLASSIFICATION_TYPE":"U","NORAD_CAT_ID":67774,"ELEMENT_SET_NO":999,"REV_AT_EPOCH":509,"BSTAR":0.00070744871,"MEAN_MOTION_DOT":0.00025239,"MEAN_MOTION_DDOT":0}]
